STARLINK-37775          
1 69348U 26122V   26166.50002315 -.00109364  00000+0 -57496-3 0  9998
2 69348  97.2837 195.9035 0001644 126.6613 272.9683 15.80906396  3085
STARLINK-37777          
1 69349U 26122W   26166.50002315 -.00093455  00000+0 -49067-3 0  9997
2 69349  97.2833 195.9045 0001385 109.2731 291.1442 15.80892209  3086
STARLINK-37779          
1 69350U 26122X   26166.50002315  .00288084  00000+0  14594-2 0  9997
2 69350  97.2835 195.9083 0000572 101.3031 306.0768 15.80758495  3080
STARLINK-37549          
1 69351U 26122Y   26166.50002315 -.00005364  00000+0 -27202-4 0  9990
2 69351  97.2839 195.9008 0001624 100.5842 291.0890 15.80878793  3085
STARLINK-37778          
1 69352U 26122Z   26166.50002315 -.00040455  00000+0 -21113-3 0  9995
2 69352  97.2833 195.9102 0001455  93.1538 321.5412 15.80847265  3085
STARLINK-37651          
1 69353U 26123A   26166.50002315 -.00055235  00000+0 -27790-3 0  9996
2 69353  53.1585 250.2641 0001206  81.7210 116.7640 15.80887702  2882
STARLINK-37652          
1 69354U 26123B   26166.50002315 -.00014003  00000+0 -67454-4 0  9997
2 69354  53.1584 250.2778 0001097  87.2877 104.6782 15.80893430  2889
STARLINK-37593          
1 69355U 26123C   26166.50002315  .00017899  00000+0  93992-4 0  9998
2 69355  53.1583 250.2670 0001145  96.1775 100.7443 15.80883620  2937
STARLINK-37597          
1 69356U 26123D   26166.50002315  .00050240  00000+0  25696-3 0  9991
2 69356  53.1586 250.2477 0001143  69.9094 136.3252 15.80842295  2932
STARLINK-37598          
1 69357U 26123E   26166.50002315  .00001446  00000+0  10856-4 0  9999
2 69357  53.1587 250.2227 0001075  76.6262 141.5146 15.80890264  2932
STARLINK-37602          
1 69358U 26123F   26166.50002315 -.01858556  00000+0 -12620-1 0  9993
2 69358  53.1590 250.2241 0001374  78.1664 139.6810 15.77376147  2939
STARLINK-37600          
1 69359U 26123G   26166.50002315 -.01947608  00000+0 -12440-1 0  9991
2 69359  53.1590 250.1823 0001068  68.0286 170.0796 15.78883368  2934
STARLINK-37599          
1 69360U 26123H   26166.50002315  .00004073  00000+0  24155-4 0  9999
2 69360  53.1583 250.1011 0001201  73.7506 203.4568 15.80886317  2886
STARLINK-37039          
1 69361U 26123J   26166.50002315 -.00081653  00000+0 -41309-3 0  9990
2 69361  53.1588 250.1580 0001349  62.6781 186.4719 15.80923053  2885
STARLINK-37040          
1 69362U 26123K   26166.50002315 -.01870275  00000+0 -10081-1 0  9999
2 69362  53.1578 249.9326 0000745  97.2333 260.8539 15.82396380  2881
STARLINK-37582          
1 69363U 26123L   26166.50002315 -.00991035  00000+0 -55292-2 0  9991
2 69363  53.1586 250.1021 0000932  25.4980 250.8879 15.81247769  2887
STARLINK-37309          
1 69364U 26123M   26166.50002315 -.02208400  00000+0 -10483-1 0  9993
2 69364  53.1565 249.8279 0000875  72.7924 336.0569 15.85592856  3028
STARLINK-37436          
1 69365U 26123N   26166.50002315 -.02233780  00000+0 -10556-1 0  9994
2 69365  53.1566 249.7918 0001188  51.8025  14.3104 15.85721087  3028
STARLINK-37581          
1 69366U 26123P   26166.50002315 -.02049208  00000+0 -10593-1 0  9996
2 69366  53.1575 249.8244 0001197  58.4229 352.0626 15.83563770  2875
STARLINK-37683          
1 69367U 26123Q   26166.50002315 -.02236903  00000+0 -10952-1 0  9996
2 69367  53.1570 249.7835 0001137  49.6908  20.3854 15.85006461  2886
STARLINK-37687          
1 69368U 26123R   26166.50002315 -.02127814  00000+0 -10139-1 0  9994
2 69368  53.1566 249.7374 0001260  52.4474  39.8792 15.85372221  2883
STARLINK-37631          
1 69369U 26123S   26166.50002315 -.02159129  00000+0 -10860-1 0  9990
2 69369  53.1568 249.7402 0001281  44.2516  46.8685 15.84316645  2939
STARLINK-37673          
1 69370U 26123T   26166.50002315 -.01967551  00000+0 -10045-1 0  9992
2 69370  53.1568 249.7322 0001121  72.4795  22.4093 15.83687548  2932
STARLINK-37645          
1 69371U 26123U   26166.50002315 -.02258745  00000+0 -11932-1 0  9998
2 69371  53.1574 249.7505 0001167  46.8719  39.0220 15.82896486  2932
STARLINK-37688          
1 69372U 26123V   26166.50002315 -.00963239  00000+0 -52792-2 0  9998
2 69372  53.1574 249.7172 0000952  68.2984  33.3619 15.81555744  2933
STARLINK-37685          
1 69373U 26123W   26166.50002315 -.00728168  00000+0 -39192-2 0  9998
2 69373  53.1574 249.7111 0000627  76.2313  28.4414 15.81351260  2936
STARLINK-37632          
1 69374U 26123X   26166.50002315 -.01022148  00000+0 -56306-2 0  9991
2 69374  53.1574 249.7024 0000805  78.5434  30.1932 15.81601563  2880
STARLINK-37454          
1 69375U 26123Y   26166.50002315 -.00830003  00000+0 -45046-2 0  9997
2 69375  53.1573 249.6889 0000973  53.5017  61.5940 15.81426248  3023
STARLINK-37485          
1 69376U 26123Z   26166.50002315 -.00784685  00000+0 -42434-2 0  9990
2 69376  53.1575 249.6800 0000916  50.4358  68.8842 15.81389436  3028
STARLINK-37439          
1 69377U 26123AA  26166.50002315 -.02138483  00000+0 -11165-1 0  9998
2 69377  53.1560 249.6005 0001314  68.1395  89.3664 15.83508501  2881
