OBJECT_NAME,OBJECT_ID,EPOCH,MEAN_MOTION,ECCENTRICITY,INCLINATION,RA_OF_ASC_NODE,ARG_OF_PERICENTER,MEAN_ANOMALY,EPHEMERIS_TYPE,CLASSIFICATION_TYPE,NORAD_CAT_ID,ELEMENT_SET_NO,REV_AT_EPOCH,BSTAR,MEAN_MOTION_DOT,MEAN_MOTION_DDOT
STARLINK-37775,2026-122V,2026-06-15T12:00:02.000160,15.80906396,.0001644,97.2837,195.9035,126.6613,272.9683,0,U,69348,999,308,-.57496E-3,-.109364E-2,0
STARLINK-37777,2026-122W,2026-06-15T12:00:02.000160,15.80892209,.0001385,97.2833,195.9045,109.2731,291.1442,0,U,69349,999,308,-.49067E-3,-.93455E-3,0
STARLINK-37779,2026-122X,2026-06-15T12:00:02.000160,15.80758495,.0000572,97.2835,195.9083,101.3031,306.0768,0,U,69350,999,308,.14594E-2,.288084E-2,0
STARLINK-37549,2026-122Y,2026-06-15T12:00:02.000160,15.80878793,.0001624,97.2839,195.9008,100.5842,291.0890,0,U,69351,999,308,-.27202E-4,-.5364E-4,0
STARLINK-37778,2026-122Z,2026-06-15T12:00:02.000160,15.80847265,.0001455,97.2833,195.9102,93.1538,321.5412,0,U,69352,999,308,-.21113E-3,-.40455E-3,0
STARLINK-37651,2026-123A,2026-06-15T12:00:02.000160,15.80887702,.0001206,53.1585,250.2641,81.7210,116.7640,0,U,69353,999,288,-.2779E-3,-.55235E-3,0
STARLINK-37652,2026-123B,2026-06-15T12:00:02.000160,15.80893430,.0001097,53.1584,250.2778,87.2877,104.6782,0,U,69354,999,288,-.67454E-4,-.14003E-3,0
STARLINK-37593,2026-123C,2026-06-15T12:00:02.000160,15.80883620,.0001145,53.1583,250.2670,96.1775,100.7443,0,U,69355,999,293,.93992E-4,.17899E-3,0
STARLINK-37597,2026-123D,2026-06-15T12:00:02.000160,15.80842295,.0001143,53.1586,250.2477,69.9094,136.3252,0,U,69356,999,293,.25696E-3,.5024E-3,0
STARLINK-37598,2026-123E,2026-06-15T12:00:02.000160,15.80890264,.0001075,53.1587,250.2227,76.6262,141.5146,0,U,69357,999,293,.10856E-4,.1446E-4,0
STARLINK-37602,2026-123F,2026-06-15T12:00:02.000160,15.77376147,.0001374,53.1590,250.2241,78.1664,139.6810,0,U,69358,999,293,-.1262E-1,-.1858556E-1,0
STARLINK-37600,2026-123G,2026-06-15T12:00:02.000160,15.78883368,.0001068,53.1590,250.1823,68.0286,170.0796,0,U,69359,999,293,-.1244E-1,-.1947608E-1,0
STARLINK-37599,2026-123H,2026-06-15T12:00:02.000160,15.80886317,.0001201,53.1583,250.1011,73.7506,203.4568,0,U,69360,999,288,.24155E-4,.4073E-4,0
STARLINK-37039,2026-123J,2026-06-15T12:00:02.000160,15.80923053,.0001349,53.1588,250.1580,62.6781,186.4719,0,U,69361,999,288,-.41309E-3,-.81653E-3,0
STARLINK-37040,2026-123K,2026-06-15T12:00:02.000160,15.82396380,.0000745,53.1578,249.9326,97.2333,260.8539,0,U,69362,999,288,-.10081E-1,-.1870275E-1,0
STARLINK-37582,2026-123L,2026-06-15T12:00:02.000160,15.81247769,.0000932,53.1586,250.1021,25.4980,250.8879,0,U,69363,999,288,-.55292E-2,-.991035E-2,0
STARLINK-37309,2026-123M,2026-06-15T12:00:02.000160,15.85592856,.0000875,53.1565,249.8279,72.7924,336.0569,0,U,69364,999,302,-.10483E-1,-.22084E-1,0
STARLINK-37436,2026-123N,2026-06-15T12:00:02.000160,15.85721087,.0001188,53.1566,249.7918,51.8025,14.3104,0,U,69365,999,302,-.10556E-1,-.223378E-1,0
STARLINK-37581,2026-123P,2026-06-15T12:00:02.000160,15.83563770,.0001197,53.1575,249.8244,58.4229,352.0626,0,U,69366,999,287,-.10593E-1,-.2049208E-1,0
STARLINK-37683,2026-123Q,2026-06-15T12:00:02.000160,15.85006461,.0001137,53.1570,249.7835,49.6908,20.3854,0,U,69367,999,288,-.10952E-1,-.2236903E-1,0
STARLINK-37687,2026-123R,2026-06-15T12:00:02.000160,15.85372221,.000126,53.1566,249.7374,52.4474,39.8792,0,U,69368,999,288,-.10139E-1,-.2127814E-1,0
STARLINK-37631,2026-123S,2026-06-15T12:00:02.000160,15.84316645,.0001281,53.1568,249.7402,44.2516,46.8685,0,U,69369,999,293,-.1086E-1,-.2159129E-1,0
STARLINK-37673,2026-123T,2026-06-15T12:00:02.000160,15.83687548,.0001121,53.1568,249.7322,72.4795,22.4093,0,U,69370,999,293,-.10045E-1,-.1967551E-1,0
STARLINK-37645,2026-123U,2026-06-15T12:00:02.000160,15.82896486,.0001167,53.1574,249.7505,46.8719,39.0220,0,U,69371,999,293,-.11932E-1,-.2258745E-1,0
STARLINK-37688,2026-123V,2026-06-15T12:00:02.000160,15.81555744,.0000952,53.1574,249.7172,68.2984,33.3619,0,U,69372,999,293,-.52792E-2,-.963239E-2,0
STARLINK-37685,2026-123W,2026-06-15T12:00:02.000160,15.81351260,.0000627,53.1574,249.7111,76.2313,28.4414,0,U,69373,999,293,-.39192E-2,-.728168E-2,0
STARLINK-37632,2026-123X,2026-06-15T12:00:02.000160,15.81601563,.0000805,53.1574,249.7024,78.5434,30.1932,0,U,69374,999,288,-.56306E-2,-.1022148E-1,0
STARLINK-37454,2026-123Y,2026-06-15T12:00:02.000160,15.81426248,.0000973,53.1573,249.6889,53.5017,61.5940,0,U,69375,999,302,-.45046E-2,-.830003E-2,0
STARLINK-37485,2026-123Z,2026-06-15T12:00:02.000160,15.81389436,.0000916,53.1575,249.6800,50.4358,68.8842,0,U,69376,999,302,-.42434E-2,-.784685E-2,0
STARLINK-37439,2026-123AA,2026-06-15T12:00:02.000160,15.83508501,.0001314,53.1560,249.6005,68.1395,89.3664,0,U,69377,999,288,-.11165E-1,-.2138483E-1,0
